NORAD_CAT_ID,OBJECT_NAME,OBJECT_TYPE,EPOCH,MEAN_MOTION,ECCENTRICITY,INCLINATION,RA_OF_ASC_NODE,ARG_OF_PERICENTER,MEAN_ANOMALY,BSTAR,MEAN_MOTION_DOT,MEAN_MOTION_DDOT,TLE_LINE0,TLE_LINE1,TLE_LINE2,SEMIMAJOR_AXIS,PERIOD,APOGEE,PERIGEE,DECAYED
54161.0,STARLINK-5269,PAYLOAD,2022-11-13 22:00:00,15.73135334,0.0002462,53.2178,60.4198,9.7986,206.1764,0.00018012,0.00024664,0.0,0 STARLINK-5269,1 54161U 22141E   22317.91667824  .00024664  00000-0  18012-3 0  9992,2 54161  53.2178  60.4198 0002462   9.7986 206.1764 15.73135334  1301,6728.08,91.537,351.601,348.288,0.0
54161.0,STARLINK-5269,PAYLOAD,2022-11-14 14:00:01,15.73239255,0.0002614,53.2178,57.1211,11.9003,21.8398,-0.00027214,-0.00038711,0.0,0 STARLINK-5269,1 54161U 22141E   22318.58334491 -.00038711  00000-0 -27214-3 0  9991,2 54161  53.2178  57.1211 0002614  11.9003  21.8398 15.73239255  2790,6727.783,91.531,351.407,347.89,0.0
54161.0,STARLINK-5269,PAYLOAD,2022-11-14 22:00:00,15.73353451,0.0002293,53.2174,55.4685,2.1391,120.5378,-0.0030321,-0.00408907,0.0,0 STARLINK-5269,1 54161U 22141E   22318.91667824 -.00408907  00000-0 -30321-2 0  9997,2 54161  53.2174  55.4685 0002293   2.1391 120.5378 15.73353451  1303,6727.458000000001,91.524,350.865,347.78,0.0
54161.0,STARLINK-5269,PAYLOAD,2022-11-15 04:00:00,15.73277896,0.0002114,53.2174,54.2279,314.2724,145.1293,-0.007183,-0.00909135,0.0,0 STARLINK-5269,1 54161U 22141E   22319.16667824 -.00909135  00000-0 -71830-2 0  9994,2 54161  53.2174  54.2279 0002114 314.2724 145.1293 15.73277896  2889,6727.6730000000025,91.529,350.96,348.116,0.0
54161.0,STARLINK-5269,PAYLOAD,2022-11-15 12:00:00,15.72618791,0.0004435,53.2174,52.5787,283.8043,264.2268,-0.0096667,-0.01177243,0.0,0 STARLINK-5269,1 54161U 22141E   22319.50001157 -.01177243  00000-0 -96667-2 0  9996,2 54161  53.2174  52.5787 0004435 283.8043 264.2268 15.72618791  2930,6729.553000000001,91.567,354.402,348.43300000000005,0.0
54161.0,STARLINK-5269,PAYLOAD,2022-11-15 14:00:01,15.72432281,0.0004917,53.2178,52.1681,277.16200000000003,22.8797,-0.010136,-0.01240779,0.0,0 STARLINK-5269,1 54161U 22141E   22319.58334491 -.01240779  00000-0 -10136-1 0  9995,2 54161  53.2178  52.1681 0004917 277.1620  22.8797 15.72432281  1308,6730.085,91.578,355.259,348.641,0.0
54161.0,STARLINK-5269,PAYLOAD,2022-11-15 22:00:00,15.71546322,0.0006854,53.2174,50.5196,271.1289,116.3726,-0.010099,-0.01176713,0.0,0 STARLINK-5269,1 54161U 22141E   22319.91667824 -.01176713  00000-0 -10099-1 0  9995,2 54161  53.2174  50.5196 0006854 271.1289 116.3726 15.71546322  3005,6732.614000000001,91.629,359.094,349.86400000000015,0.0
54161.0,STARLINK-5269,PAYLOAD,2022-11-16 14:00:01,15.69835011,0.0001839,53.2174,47.2338,272.6982,286.6705,-0.010927,-0.01200448,0.0,0 STARLINK-5269,1 54161U 22141E   22320.58335648 -.01200448  00000-0 -10927-1 0  9999,2 54161  53.2174  47.2338 0001839 272.6982 286.6705 15.69835011  3102,6737.505999999999,91.729,360.61,358.13199999999995,0.0
54161.0,STARLINK-5269,PAYLOAD,2022-11-16 22:00:08,15.68971702,3.78e-05,53.2173,45.5921,87.3672,196.7538,-0.011213,-0.01188868,0.0,0 STARLINK-5269,1 54161U 22141E   22320.91675926 -.01188868  00000-0 -11213-1 0  9992,2 54161  53.2173  45.5921 0000378  87.3672 196.7538 15.68971702  1306,6739.977,91.78,362.097,361.588,0.0
54161.0,STARLINK-5269,PAYLOAD,2022-11-17 12:00:00,15.67394329,0.0001116,53.2176,42.7284,72.0051,266.8399,-0.010805,-0.01067146,0.0,0 STARLINK-5269,1 54161U 22141E   22321.50001157 -.01067146  00000-0 -10805-1 0  9998,2 54161  53.2176  42.7284 0001116  72.0051 266.8399 15.67394329  3256,6744.498000000001,91.872,367.116,365.611,0.0
54161.0,STARLINK-5269,PAYLOAD,2022-11-17 14:00:01,15.67259254,0.0001277,53.2177,42.3198,68.0934,21.1901,-0.012042,-0.01189888,0.0,0 STARLINK-5269,1 54161U 22141E   22321.58334491 -.01189888  00000-0 -12042-1 0  9999,2 54161  53.2177  42.3198 0001277  68.0934  21.1901 15.67259254  1302,6744.886,91.88,367.612,365.89,0.0
54161.0,STARLINK-5269,PAYLOAD,2022-11-17 20:00:01,15.66619061,0.0001055,53.2173,41.0928,67.2383,353.092,-0.012412,-0.01194223,0.0,0 STARLINK-5269,1 54161U 22141E   22321.83334491 -.01194223  00000-0 -12412-1 0  9997,2 54161  53.2173  41.0928 0001055  67.2383 353.0920 15.66619061  3303,6746.723000000001,91.918,369.3,367.877,0.0
54161.0,STARLINK-5269,PAYLOAD,2022-11-17 22:00:00,15.66407569,0.0001345,53.2175,40.6847,59.46100000000001,111.0882,-0.012571,-0.01198781,0.0,0 STARLINK-5269,1 54161U 22141E   22321.91667824 -.01198781  00000-0 -12571-1 0  9994,2 54161  53.2175  40.6847 0001345  59.4610 111.0882 15.66407569  1303,6747.331,91.93,370.103,368.288,0.0
54161.0,STARLINK-5269,PAYLOAD,2022-11-18 14:00:01,15.64695619,0.0001067,53.2177,37.4244,65.6693,264.3208,-0.013498,-0.01200868,0.0,0 STARLINK-5269,1 54161U 22141E   22322.58334491 -.01200868  00000-0 -13498-1 0  9998,2 54161  53.2177  37.4244 0001067  65.6693 264.3208 15.64695619  3423,6752.251,92.031,374.837,373.396,0.0
54161.0,STARLINK-5269,PAYLOAD,2022-11-18 22:00:00,15.63833202,0.0001213,53.2174,35.7948,51.034,357.1364,-0.013874,-0.01193407,0.0,0 STARLINK-5269,1 54161U 22141E   22322.91667824 -.01193407  00000-0 -13874-1 0  9992,2 54161  53.2174  35.7948 0001213  51.0340 357.1364 15.63833202  1303,6754.734,92.081,377.418,375.779,0.0
54161.0,STARLINK-5269,PAYLOAD,2022-11-19 14:00:01,15.62134877,0.000134,53.2177,32.5476,64.9309,136.4929,-0.0151,-0.01212486,0.0,0 STARLINK-5269,1 54161U 22141E   22323.58334491 -.01212486  00000-0 -15100-1 0  9990,2 54161  53.2177  32.5476 0001340  64.9309 136.4929 15.62134877  3573,6759.628000000002,92.182,382.399,380.588,0.0
54161.0,STARLINK-5269,PAYLOAD,2022-11-19 22:00:00,15.61251948,0.0001209,53.2175,30.9241,54.6869,221.8372,-0.015142,-0.01178274,0.0,0 STARLINK-5269,1 54161U 22141E   22323.91667824 -.01178274  00000-0 -15142-1 0  9998,2 54161  53.2175  30.9241 0001209  54.6869 221.8372 15.61251948  1302,6762.177,92.234,384.859,383.224,0.0
54161.0,STARLINK-5269,PAYLOAD,2022-11-20 14:00:01,15.59549573,0.0001398,53.2179,27.6893,47.0921,16.5087,-0.016413,-0.01194112,0.0,0 STARLINK-5269,1 54161U 22141E   22324.58334491 -.01194112  00000-0 -16413-1 0  9994,2 54161  53.2179  27.6893 0001398  47.0921  16.5087 15.59549573  3738,6767.097,92.334,389.908,388.016,0.0
54161.0,STARLINK-5269,PAYLOAD,2022-11-20 22:00:00,15.58688234,0.0001388,53.2176,26.0711,52.063,83.538,-0.016862,-0.01187691,0.0,0 STARLINK-5269,1 54161U 22141E   22324.91667824 -.01187691  00000-0 -16862-1 0  9992,2 54161  53.2176  26.0711 0001388  52.0630  83.5380 15.58688234  1307,6769.59,92.385,392.394,390.515,0.0
54161.0,STARLINK-5269,PAYLOAD,2022-11-21 14:00:01,15.56982278,0.000138,53.2176,22.8498,54.4231,222.0744,-0.018151,-0.01197361,0.0,0 STARLINK-5269,1 54161U 22141E   22325.58334491 -.01197361  00000-0 -18151-1 0  9995,2 54161  53.2176  22.8498 0001380  54.4231 222.0744 15.56982278  3880,6774.534000000002,92.487,397.333,395.464,0.0
54161.0,STARLINK-5269,PAYLOAD,2022-11-21 22:00:00,15.56118332,0.0001269,53.2174,21.2383,43.5638,301.8459,-0.018617,-0.01189744,0.0,0 STARLINK-5269,1 54161U 22141E   22325.91667824 -.01189744  00000-0 -18617-1 0  9994,2 54161  53.2174  21.2383 0001269  43.5638 301.8459 15.56118332  1306,6777.041,92.538,399.766,398.046,0.0
54161.0,STARLINK-5269,PAYLOAD,2022-11-22 14:00:01,15.54406236,0.0001603,53.2175,18.0286,45.147,75.0472,-0.019844,-0.01190116,0.0,0 STARLINK-5269,1 54161U 22141E   22326.58335648 -.01190116  00000-0 -19844-1 0  9992,2 54161  53.2175  18.0286 0001603  45.1470  75.0472 15.54406236  4047,6782.016,92.64,404.968,402.794,0.0
54161.0,STARLINK-5269,PAYLOAD,2022-11-22 22:00:00,15.53542955,0.0001466,53.2175,16.423,51.2311,134.7199,-0.020335,-0.01182277,0.0,0 STARLINK-5269,1 54161U 22141E   22326.91667824 -.01182277  00000-0 -20335-1 0  9999,2 54161  53.2175  16.4230 0001466  51.2311 134.7199 15.53542955  1300,6784.528,92.691,407.388,405.399,0.0
54161.0,STARLINK-5269,PAYLOAD,2022-11-23 14:00:01,15.51856131,0.0001235,53.2176,13.2259,48.5438,265.9352,-0.022351,-0.01237136,0.0,0 STARLINK-5269,1 54161U 22141E   22327.58334491 -.01237136  00000-0 -22351-1 0  9999,2 54161  53.2176  13.2259 0001235  48.5438 265.9352 15.51856131  4202,6789.444,92.792,412.147,410.47,0.0
54161.0,STARLINK-5269,PAYLOAD,2022-11-23 22:00:00,15.50899214,0.0001286999999999,53.2176,11.6263,46.5913,330.6431,-0.018711,-0.01004959,0.0,0 STARLINK-5269,1 54161U 22141E   22327.91667824 -.01004959  00000-0 -18711-1 0  9995,2 54161  53.2176  11.6263 0001287  46.5913 330.6431 15.50899214  1306,6792.236,92.849,414.976,413.227,0.0
54161.0,STARLINK-5269,PAYLOAD,2022-11-24 06:00:02,15.50211096,0.0001299,53.2176,10.0329,51.8371,27.1337,-0.020395,-0.01062958,0.0,0 STARLINK-5269,1 54161U 22141E   22328.25002315 -.01062958  00000-0 -20395-1 0  9995,2 54161  53.2176  10.0329 0001299  51.8371  27.1337 15.50211096  4304,6794.246,92.891,416.994,415.229,0.0
54161.0,STARLINK-5269,PAYLOAD,2022-11-24 14:00:01,15.49475659,0.000161,53.2174,8.4418,46.4421,93.3014,-0.02348,-0.01197294,0.0,0 STARLINK-5269,1 54161U 22141E   22328.58334491 -.01197294  00000-0 -23480-1 0  9994,2 54161  53.2174   8.4418 0001610  46.4421  93.3014 15.49475659  1304,6796.396,92.935,419.355,417.167,0.0
54161.0,STARLINK-5269,PAYLOAD,2022-11-24 22:00:00,15.48621103,0.0001651,53.2174,6.8482,43.7368,155.9068,-0.024276,-0.01200683,0.0,0 STARLINK-5269,1 54161U 22141E   22328.91667824 -.01200683  00000-0 -24276-1 0  9991,2 54161  53.2174   6.8482 0001651  43.7368 155.9068 15.48621103  4406,6798.896,92.986,421.883,419.638,0.0
54161.0,STARLINK-5269,PAYLOAD,2022-11-25 14:00:01,15.46938047,0.0001323,53.2171,3.6748,43.3235,273.0128,-0.026729,-0.01241968,0.0,0 STARLINK-5269,1 54161U 22141E   22329.58334491 -.01241968  00000-0 -26729-1 0  9992,2 54161  53.2171   3.6748 0001323  43.3235 273.0128 15.46938047  4515,6803.826,93.087,426.592,424.791,0.0
